{
  "type": "FeatureCollection",
  "features": [
    {
      "type": "Feature",
      "properties": {
        "norad_id": 59626,
        "name": "LEGION 2",
        "group": "resource",
        "lat": 30.64381644987674,
        "lon": -115.56379805059817,
        "alt_km": 518.4780343342545,
        "timestamp": "2025-12-11T05:00:25.968941+00:00",
        "meta_object_name": "LEGION 2",
        "meta_object_id": "2024-081B",
        "meta_epoch": "2025-12-10T22:01:03.169056",
        "meta_mean_motion": 15.1646094,
        "meta_eccentricity": 0.00057845,
        "meta_inclination": 97.5212,
        "meta_ra_of_asc_node": 59.6582,
        "meta_arg_of_pericenter": 301.4083,
        "meta_mean_anomaly": 58.6584,
        "meta_ephemeris_type": 0,
        "meta_classification_type": "U",
        "meta_norad_cat_id": 59626,
        "meta_element_set_no": 999,
        "meta_rev_at_epoch": 8900,
        "meta_bstar": 0.00037188689,
        "meta_mean_motion_dot": 7.174e-05,
        "meta_mean_motion_ddot": 0,
        "tle_line1": "1 59626U 24081B   25344.91739779  .00007174  00000+0  37189-3 0  9992",
        "tle_line2": "2 59626  97.5212  59.6582 0005784 301.4083  58.6584 15.16460940 89003"
      },
      "geometry": {
        "type": "Point",
        "coordinates": [
          -115.56379805059817,
          30.64381644987674
        ]
      }
    },
    {
      "type": "Feature",
      "properties": {
        "norad_id": 60182,
        "name": "ALOS-4 (DAICHI-4)",
        "group": "resource",
        "lat": 9.594517193408771,
        "lon": 78.72863750416381,
        "alt_km": 632.656689202764,
        "timestamp": "2025-12-11T05:00:25.968951+00:00",
        "meta_object_name": "ALOS-4 (DAICHI-4)",
        "meta_object_id": "2024-123A",
        "meta_epoch": "2025-12-10T20:50:51.533664",
        "meta_mean_motion": 14.79478132,
        "meta_eccentricity": 0.00014193,
        "meta_inclination": 97.9225,
        "meta_ra_of_asc_node": 79.7424,
        "meta_arg_of_pericenter": 101.2045,
        "meta_mean_anomaly": 258.9326,
        "meta_ephemeris_type": 0,
        "meta_classification_type": "U",
        "meta_norad_cat_id": 60182,
        "meta_element_set_no": 999,
        "meta_rev_at_epoch": 7803,
        "meta_bstar": 0.00039567352,
        "meta_mean_motion_dot": 2.905e-05,
        "meta_mean_motion_ddot": 0,
        "tle_line1": "1 60182U 24123A   25344.86865201  .00002905  00000+0  39567-3 0  9991",
        "tle_line2": "2 60182  97.9225  79.7424 0001419 101.2045 258.9326 14.79478132 78033"
      },
      "geometry": {
        "type": "Point",
        "coordinates": [
          78.72863750416381,
          9.594517193408771
        ]
      }
    },
    {
      "type": "Feature",
      "properties": {
        "norad_id": 60452,
        "name": "LEGION 3",
        "group": "resource",
        "lat": -5.256717827419758,
        "lon": 143.62267421471162,
        "alt_km": 509.29864356604685,
        "timestamp": "2025-12-11T05:00:25.968961+00:00",
        "meta_object_name": "LEGION 3",
        "meta_object_id": "2024-146A",
        "meta_epoch": "2025-12-10T23:26:20.389632",
        "meta_mean_motion": 15.15730612,
        "meta_eccentricity": 0.0014682,
        "meta_inclination": 45.0021,
        "meta_ra_of_asc_node": 319.5847,
        "meta_arg_of_pericenter": 189.1963,
        "meta_mean_anomaly": 170.8649,
        "meta_ephemeris_type": 0,
        "meta_classification_type": "U",
        "meta_norad_cat_id": 60452,
        "meta_element_set_no": 999,
        "meta_rev_at_epoch": 7346,
        "meta_bstar": 0.00040587032,
        "meta_mean_motion_dot": 7.63e-05,
        "meta_mean_motion_ddot": 0,
        "tle_line1": "1 60452U 24146A   25344.97662488  .00007630  00000+0  40587-3 0  9994",
        "tle_line2": "2 60452  45.0021 319.5847 0014682 189.1963 170.8649 15.15730612 73462"
      },
      "geometry": {
        "type": "Point",
        "coordinates": [
          143.62267421471162,
          -5.256717827419758
        ]
      }
    },
    {
      "type": "Feature",
      "properties": {
        "norad_id": 60453,
        "name": "LEGION 4",
        "group": "resource",
        "lat": -2.7068779785142327,
        "lon": -127.20579320921478,
        "alt_km": 522.1979499845602,
        "timestamp": "2025-12-11T05:00:25.968971+00:00",
        "meta_object_name": "LEGION 4",
        "meta_object_id": "2024-146B",
        "meta_epoch": "2025-12-10T21:52:21.916992",
        "meta_mean_motion": 15.15793216,
        "meta_eccentricity": 0.00096608,
        "meta_inclination": 45.0386,
        "meta_ra_of_asc_node": 51.6795,
        "meta_arg_of_pericenter": 301.7283,
        "meta_mean_anomaly": 58.2654,
        "meta_ephemeris_type": 0,
        "meta_classification_type": "U",
        "meta_norad_cat_id": 60453,
        "meta_element_set_no": 999,
        "meta_rev_at_epoch": 7230,
        "meta_bstar": 0.00042442888,
        "meta_mean_motion_dot": 7.994e-05,
        "meta_mean_motion_ddot": 0,
        "tle_line1": "1 60453U 24146B   25344.91136478  .00007994  00000+0  42443-3 0  9990",
        "tle_line2": "2 60453  45.0386  51.6795 0009660 301.7283  58.2654 15.15793216 72306"
      },
      "geometry": {
        "type": "Point",
        "coordinates": [
          -127.20579320921478,
          -2.7068779785142327
        ]
      }
    },
    {
      "type": "Feature",
      "properties": {
        "norad_id": 60989,
        "name": "SENTINEL-2C",
        "group": "resource",
        "lat": 40.75293232554983,
        "lon": 50.24805504052668,
        "alt_km": 785.2594094290125,
        "timestamp": "2025-12-11T05:00:25.968981+00:00",
        "meta_object_name": "SENTINEL-2C",
        "meta_object_id": "2024-157A",
        "meta_epoch": "2025-12-10T22:06:05.377248",
        "meta_mean_motion": 14.30816414,
        "meta_eccentricity": 0.00011996,
        "meta_inclination": 98.5684,
        "meta_ra_of_asc_node": 57.4297,
        "meta_arg_of_pericenter": 97.7886,
        "meta_mean_anomaly": 262.3433,
        "meta_ephemeris_type": 0,
        "meta_classification_type": "U",
        "meta_norad_cat_id": 60989,
        "meta_element_set_no": 999,
        "meta_rev_at_epoch": 6606,
        "meta_bstar": 0.00010429475,
        "meta_mean_motion_dot": 2.3e-06,
        "meta_mean_motion_ddot": 0,
        "tle_line1": "1 60989U 24157A   25344.92089557  .00000230  00000+0  10429-3 0  9997",
        "tle_line2": "2 60989  98.5684  57.4297 0001199  97.7886 262.3433 14.30816414 66066"
      },
      "geometry": {
        "type": "Point",
        "coordinates": [
          50.24805504052668,
          40.75293232554983
        ]
      }
    },
    {
      "type": "Feature",
      "properties": {
        "norad_id": 61735,
        "name": "IONOSFERA-M 1",
        "group": "resource",
        "lat": -7.668894369668943,
        "lon": -143.74448291617125,
        "alt_km": 819.4094377874499,
        "timestamp": "2025-12-11T05:00:25.968990+00:00",
        "meta_object_name": "IONOSFERA-M 1",
        "meta_object_id": "2024-199A",
        "meta_epoch": "2025-12-10T22:17:31.585056",
        "meta_mean_motion": 14.22713416,
        "meta_eccentricity": 0.00010478,
        "meta_inclination": 98.7411,
        "meta_ra_of_asc_node": 214.7909,
        "meta_arg_of_pericenter": 24.6857,
        "meta_mean_anomaly": 335.4371,
        "meta_ephemeris_type": 0,
        "meta_classification_type": "U",
        "meta_norad_cat_id": 61735,
        "meta_element_set_no": 999,
        "meta_rev_at_epoch": 10093,
        "meta_bstar": 7.1063126e-05,
        "meta_mean_motion_dot": 1.15e-06,
        "meta_mean_motion_ddot": 0,
        "tle_line1": "1 61735U 24199A   25344.92883779  .00000115  00000+0  71063-4 0  9995",
        "tle_line2": "2 61735  98.7411 214.7909 0001047  24.6857 335.4371 14.22713416100930"
      },
      "geometry": {
        "type": "Point",
        "coordinates": [
          -143.74448291617125,
          -7.668894369668943
        ]
      }
    },
    {
      "type": "Feature",
      "properties": {
        "norad_id": 61736,
        "name": "IONOSFERA-M 2",
        "group": "resource",
        "lat": 4.794067066367739,
        "lon": 35.72021872655669,
        "alt_km": 817.9263463747875,
        "timestamp": "2025-12-11T05:00:25.969000+00:00",
        "meta_object_name": "IONOSFERA-M 2",
        "meta_object_id": "2024-199B",
        "meta_epoch": "2025-12-10T23:07:25.224960",
        "meta_mean_motion": 14.22715615,
        "meta_eccentricity": 0.00016026,
        "meta_inclination": 98.7403,
        "meta_ra_of_asc_node": 214.7378,
        "meta_arg_of_pericenter": 112.9591,
        "meta_mean_anomaly": 247.1756,
        "meta_ephemeris_type": 0,
        "meta_classification_type": "U",
        "meta_norad_cat_id": 61736,
        "meta_element_set_no": 999,
        "meta_rev_at_epoch": 10406,
        "meta_bstar": 7.1444941e-05,
        "meta_mean_motion_dot": 1.16e-06,
        "meta_mean_motion_ddot": 0,
        "tle_line1": "1 61736U 24199B   25344.96348640  .00000116  00000+0  71445-4 0  9998",
        "tle_line2": "2 61736  98.7403 214.7378 0001602 112.9591 247.1756 14.22715615104062"
      },
      "geometry": {
        "type": "Point",
        "coordinates": [
          35.72021872655669,
          4.794067066367739
        ]
      }
    }
  ]
}